[{"OBJECT_NAME":"STARLINK-4478","OBJECT_ID":"2022-101C","EPOCH":"2026-03-09T10:02:51.290016","MEAN_MOTION":15.10614738,"ECCENTRICITY":0.00035117,"INCLINATION":53.2154,"RA_OF_ASC_NODE":75.1159,"ARG_OF_PERICENTER":60.8817,"MEAN_ANOMALY":299.2528,"EPHEMERIS_TYPE":0,"CLASSIFICATION_TYPE":"U","NORAD_CAT_ID":53529,"ELEMENT_SET_NO":999,"REV_AT_EPOCH":19612,"BSTAR":0.0015702237,"MEAN_MOTION_DOT":0.00026046,"MEAN_MOTION_DDOT":0},{"OBJECT_NAME":"FENGYUN 1C DEB","OBJECT_ID":"1999-025DEQ","EPOCH":"2026-03-08T16:18:11.400768","MEAN_MOTION":15.03063896,"ECCENTRICITY":0.0041192,"INCLINATION":98.802,"RA_OF_ASC_NODE":149.1421,"ARG_OF_PERICENTER":81.4798,"MEAN_ANOMALY":279.1089,"EPHEMERIS_TYPE":0,"CLASSIFICATION_TYPE":"U","NORAD_CAT_ID":33655,"ELEMENT_SET_NO":999,"REV_AT_EPOCH":97846,"BSTAR":0.0032042236,"MEAN_MOTION_DOT":0.0004416,"MEAN_MOTION_DDOT":0}]
